{"type": "FeatureCollection", "features": [ {"type": "Feature", "properties": {"norad_id": 32225, "name": "FENGYUN 1C DEB", "group": "fengyun-1c-debris", "lat": -10.476295963912158, "lon": -146.6297314772843, "alt_km": 803.5632852548906, "timestamp": "2025-12-12T09:49:09.017776+00:00", "meta": {"OBJECT_NAME": "FENGYUN 1C DEB", "OBJECT_ID": "1999-025CVX", "EPOCH": "2025-12-10T21:13:47.563392", "MEAN_MOTION": 14.13042634, "ECCENTRICITY": 0.0071641, "INCLINATION": 99.0927, "RA_OF_ASC_NODE": 33.5192, "ARG_OF_PERICENTER": 211.7536, "MEAN_ANOMALY": 147.9305, "EPHEMERIS_TYPE": 0, "CLASSIFICATION_TYPE": "U", "NORAD_CAT_ID": 32225, "ELEMENT_SET_NO": 999, "REV_AT_EPOCH": 68090, "BSTAR": 0.00031798, "MEAN_MOTION_DOT": 5.62e-06, "MEAN_MOTION_DDOT": 0}, "tle": {"line1": "1 32225U 99025CVX 25344.88457828  .00000562  00000+0  31798-3 0  9990", "line2": "2 32225  99.0927  33.5192 0071641 211.7536 147.9305 14.13042634680909"}}, "geometry": {"type": "Point", "coordinates": [-146.6297314772843, -10.476295963912158]}}, {"type": "Feature", "properties": {"norad_id": 32230, "name": "FENGYUN 1C DEB", "group": "fengyun-1c-debris", "lat": -26.970437550639964, "lon": 140.5604054330035, "alt_km": 727.8907017480806, "timestamp": "2025-12-12T09:49:09.017787+00:00", "meta": {"OBJECT_NAME": "FENGYUN 1C DEB", "OBJECT_ID": "1999-025CWC", "EPOCH": "2025-12-11T09:27:40.133664", "MEAN_MOTION": 14.5606844, "ECCENTRICITY": 0.00506958, "INCLINATION": 98.8712, "RA_OF_ASC_NODE": 134.9234, "ARG_OF_PERICENTER": 93.4093, "MEAN_ANOMALY": 322.8366, "EPHEMERIS_TYPE": 0, "CLASSIFICATION_TYPE": "U", "NORAD_CAT_ID": 32230, "ELEMENT_SET_NO": 999, "REV_AT_EPOCH": 60650, "BSTAR": 0.005963693, "MEAN_MOTION_DOT": 0.00026787, "MEAN_MOTION_DDOT": 0}, "tle": {"line1": "1 32230U 99025CWC 25345.39421451  .00026787  00000+0  59637-2 0  9994", "line2": "2 32230  98.8712 134.9234 0050695  93.4093 322.8366 14.56068440606501"}}, "geometry": {"type": "Point", "coordinates": [140.5604054330035, -26.970437550639964]}}, {"type": "Feature", "properties": {"norad_id": 32234, "name": "FENGYUN 1C DEB", "group": "fengyun-1c-debris", "lat": 4.0385081015922175, "lon": 16.89291418583911, "alt_km": 1011.3913152025061, "timestamp": "2025-12-12T09:49:09.017797+00:00", "meta": {"OBJECT_NAME": "FENGYUN 1C DEB", "OBJECT_ID": "1999-025CWG", "EPOCH": "2025-12-12T00:21:39.640032", "MEAN_MOTION": 13.94120362, "ECCENTRICITY": 0.0137511, "INCLINATION": 98.5287, "RA_OF_ASC_NODE": 195.9219, "ARG_OF_PERICENTER": 338.147, "MEAN_ANOMALY": 21.3862, "EPHEMERIS_TYPE": 0, "CLASSIFICATION_TYPE": "U", "NORAD_CAT_ID": 32234, "ELEMENT_SET_NO": 999, "REV_AT_EPOCH": 93199, "BSTAR": 0.0020758, "MEAN_MOTION_DOT": 2.936e-05, "MEAN_MOTION_DDOT": 0}, "tle": {"line1": "1 32234U 99025CWG 25346.01504213  .00002936  00000+0  20758-2 0  9998", "line2": "2 32234  98.5287 195.9219 0137511 338.1470  21.3862 13.94120362931999"}}, "geometry": {"type": "Point", "coordinates": [16.89291418583911, 4.0385081015922175]}}, {"type": "Feature", "properties": {"norad_id": 32241, "name": "FENGYUN 1C DEB", "group": "fengyun-1c-debris", "lat": 11.223847326197903, "lon": -162.33275086918493, "alt_km": 737.4112644096549, "timestamp": "2025-12-12T09:49:09.017808+00:00", "meta": {"OBJECT_NAME": "FENGYUN 1C DEB", "OBJECT_ID": "1999-025CWP", "EPOCH": "2025-12-10T20:02:37.728096", "MEAN_MOTION": 14.28717235, "ECCENTRICITY": 0.0146317, "INCLINATION": 99.078, "RA_OF_ASC_NODE": 14.2114, "ARG_OF_PERICENTER": 228.9704, "MEAN_ANOMALY": 129.8752, "EPHEMERIS_TYPE": 0, "CLASSIFICATION_TYPE": "U", "NORAD_CAT_ID": 32241, "ELEMENT_SET_NO": 999, "REV_AT_EPOCH": 93796, "BSTAR": 0.0022286, "MEAN_MOTION_DOT": 6.245e-05, "MEAN_MOTION_DDOT": 0}, "tle": {"line1": "1 32241U 99025CWP 25344.83515889  .00006245  00000+0  22286-2 0  9990", "line2": "2 32241  99.0780  14.2114 0146317 228.9704 129.8752 14.28717235937962"}}, "geometry": {"type": "Point", "coordinates": [-162.33275086918493, 11.223847326197903]}}, {"type": "Feature", "properties": {"norad_id": 32243, "name": "FENGYUN 1C DEB", "group": "fengyun-1c-debris", "lat": 34.57351029615072, "lon": -163.18561988394632, "alt_km": 691.7194403039184, "timestamp": "2025-12-12T09:49:09.017819+00:00", "meta": {"OBJECT_NAME": "FENGYUN 1C DEB", "OBJECT_ID": "1999-025CWR", "EPOCH": "2025-12-12T00:36:01.478304", "MEAN_MOTION": 14.04590698, "ECCENTRICITY": 0.0269522, "INCLINATION": 98.2687, "RA_OF_ASC_NODE": 10.7122, "ARG_OF_PERICENTER": 125.5548, "MEAN_ANOMALY": 237.1071, "EPHEMERIS_TYPE": 0, "CLASSIFICATION_TYPE": "U", "NORAD_CAT_ID": 32243, "ELEMENT_SET_NO": 999, "REV_AT_EPOCH": 93578, "BSTAR": 0.002757, "MEAN_MOTION_DOT": 6.063e-05, "MEAN_MOTION_DDOT": 0}, "tle": {"line1": "1 32243U 99025CWR 25346.02501711  .00006063  00000+0  27570-2 0  9993", "line2": "2 32243  98.2687  10.7122 0269522 125.5548 237.1071 14.04590698935784"}}, "geometry": {"type": "Point", "coordinates": [-163.18561988394632, 34.57351029615072]}}, {"type": "Feature", "properties": {"norad_id": 32245, "name": "FENGYUN 1C DEB", "group": "fengyun-1c-debris", "lat": -33.26020006257614, "lon": -171.83262706023635, "alt_km": 579.3518522480899, "timestamp": "2025-12-12T09:49:09.017831+00:00", "meta": {"OBJECT_NAME": "FENGYUN 1C DEB", "OBJECT_ID": "1999-025CWT", "EPOCH": "2025-12-08T06:47:00.083040", "MEAN_MOTION": 14.76843452, "ECCENTRICITY": 0.00978135, "INCLINATION": 98.6545, "RA_OF_ASC_NODE": 178.0112, "ARG_OF_PERICENTER": 355.9473, "MEAN_ANOMALY": 4.0932, "EPHEMERIS_TYPE": 0, "CLASSIFICATION_TYPE": "U", "NORAD_CAT_ID": 32245, "ELEMENT_SET_NO": 999, "REV_AT_EPOCH": 66040, "BSTAR": 0.0014541087, "MEAN_MOTION_DOT": 0.00011, "MEAN_MOTION_DDOT": 0}, "tle": {"line1": "1 32245U 99025CWT 25342.28263985  .00011000  00000+0  14541-2 0  9998", "line2": "2 32245  98.6545 178.0112 0097813 355.9473   4.0932 14.76843452660407"}}, "geometry": {"type": "Point", "coordinates": [-171.83262706023635, -33.26020006257614]}}, {"type": "Feature", "properties": {"norad_id": 32304, "name": "FENGYUN 1C DEB", "group": "fengyun-1c-debris", "lat": -1.527155764371981, "lon": -58.81298418784838, "alt_km": 749.6941372196907, "timestamp": "2025-12-12T09:49:09.017841+00:00", "meta": {"OBJECT_NAME": "FENGYUN 1C DEB", "OBJECT_ID": "1999-025CWV", "EPOCH": "2025-12-03T02:19:20.087328", "MEAN_MOTION": 14.50391603, "ECCENTRICITY": 0.00495576, "INCLINATION": 99.3949, "RA_OF_ASC_NODE": 290.5539, "ARG_OF_PERICENTER": 255.7789, "MEAN_ANOMALY": 103.7894, "EPHEMERIS_TYPE": 0, "CLASSIFICATION_TYPE": "U", "NORAD_CAT_ID": 32304, "ELEMENT_SET_NO": 999, "REV_AT_EPOCH": 56133, "BSTAR": 0.0019806873, "MEAN_MOTION_DOT": 7.809e-05, "MEAN_MOTION_DDOT": 0}, "tle": {"line1": "1 32304U 99025CWV 25337.09676027  .00007809  00000+0  19807-2 0  9994", "line2": "2 32304  99.3949 290.5539 0049557 255.7789 103.7894 14.50391603561335"}}, "geometry": {"type": "Point", "coordinates": [-58.81298418784838, -1.527155764371981]}}, {"type": "Feature", "properties": {"norad_id": 32308, "name": "FENGYUN 1C DEB", "group": "fengyun-1c-debris", "lat": -46.31562002031299, "lon": 47.58118752117707, "alt_km": 905.8979316624673, "timestamp": "2025-12-12T09:49:09.017851+00:00", "meta": {"OBJECT_NAME": "FENGYUN 1C DEB", "OBJECT_ID": "1999-025CWZ", "EPOCH": "2025-12-12T03:12:25.790112", "MEAN_MOTION": 14.05495628, "ECCENTRICITY": 0.010919, "INCLINATION": 97.7755, "RA_OF_ASC_NODE": 39.1199, "ARG_OF_PERICENTER": 62.4862, "MEAN_ANOMALY": 298.7355, "EPHEMERIS_TYPE": 0, "CLASSIFICATION_TYPE": "U", "NORAD_CAT_ID": 32308, "ELEMENT_SET_NO": 999, "REV_AT_EPOCH": 65403, "BSTAR": 0.0022704, "MEAN_MOTION_DOT": 3.858e-05, "MEAN_MOTION_DDOT": 0}, "tle": {"line1": "1 32308U 99025CWZ 25346.13363183  .00003858  00000+0  22704-2 0  9999", "line2": "2 32308  97.7755  39.1199 0109190  62.4862 298.7355 14.05495628654039"}}, "geometry": {"type": "Point", "coordinates": [47.58118752117707, -46.31562002031299]}}, {"type": "Feature", "properties": {"norad_id": 32314, "name": "FENGYUN 1C DEB", "group": "fengyun-1c-debris", "lat": 78.22258155587075, "lon": 42.96927624394963, "alt_km": 597.8394230413751, "timestamp": "2025-12-12T09:49:09.017862+00:00", "meta": {"OBJECT_NAME": "FENGYUN 1C DEB", "OBJECT_ID": "1999-025CXF", "EPOCH": "2025-12-09T13:16:04.145664", "MEAN_MOTION": 14.79358552, "ECCENTRICITY": 0.0149391, "INCLINATION": 98.8627, "RA_OF_ASC_NODE": 88.2704, "ARG_OF_PERICENTER": 167.7932, "MEAN_ANOMALY": 192.6962, "EPHEMERIS_TYPE": 0, "CLASSIFICATION_TYPE": "U", "NORAD_CAT_ID": 32314, "ELEMENT_SET_NO": 999, "REV_AT_EPOCH": 97383, "BSTAR": 0.0023179, "MEAN_MOTION_DOT": 0.00020854, "MEAN_MOTION_DDOT": 0}, "tle": {"line1": "1 32314U 99025CXF 25343.55282576  .00020854  00000+0  23179-2 0  9997", "line2": "2 32314  98.8627  88.2704 0149391 167.7932 192.6962 14.79358552973830"}}, "geometry": {"type": "Point", "coordinates": [42.96927624394963, 78.22258155587075]}}, {"type": "Feature", "properties": {"norad_id": 32315, "name": "FENGYUN 1C DEB", "group": "fengyun-1c-debris", "lat": -53.688606108851, "lon": 144.58106452727176, "alt_km": 1186.949272892578, "timestamp": "2025-12-12T09:49:09.017872+00:00", "meta": {"OBJECT_NAME": "FENGYUN 1C DEB", "OBJECT_ID": "1999-025CXG", "EPOCH": "2025-11-20T16:04:27.676128", "MEAN_MOTION": 13.66155502, "ECCENTRICITY": 0.02289149, "INCLINATION": 100.8052, "RA_OF_ASC_NODE": 105.2905, "ARG_OF_PERICENTER": 168.6, "MEAN_ANOMALY": 192.0449, "EPHEMERIS_TYPE": 0, "CLASSIFICATION_TYPE": "U", "NORAD_CAT_ID": 32315, "ELEMENT_SET_NO": 999, "REV_AT_EPOCH": 60787, "BSTAR": 0.00024184327, "MEAN_MOTION_DOT": 1.85e-06, "MEAN_MOTION_DDOT": 0}, "tle": {"line1": "1 32315U 99025CXG 25324.66976477  .00000185  00000+0  24184-3 0  9992", "line2": "2 32315 100.8052 105.2905 0228914 168.6000 192.0449 13.66155502607872"}}, "geometry": {"type": "Point", "coordinates": [144.58106452727176, -53.688606108851]}}]}